ONEWEB-0300             
1 49089U 21075Q   25195.67825947  .00000476  00000+0  12868-2 0  9998
2 49089  87.8855  57.7635 0001880  92.9278 267.2066 13.12444945190938
ONEWEB-0301             
1 49090U 21075R   25195.66203724 -.00000054  00000+0 -18552-3 0  9993
2 49090  87.8855  57.7728 0001963  95.9039 264.2313 13.12445020190299
ONEWEB-0302             
1 49091U 21075S   25195.64906087 -.00000471  00000+0 -13455-2 0  9993
2 49091  87.8856  57.7772 0001821  69.4525 290.6799 13.12443940190277
ONEWEB-0304             
1 49092U 21075T   25195.63206051  .00000058  00000+0  11601-3 0  9998
2 49092  87.9051  73.0586 0001701  79.0038 281.1285 13.17647934189124
ONEWEB-0305             
1 49093U 21075U   25195.62531152  .00000022  00000+0  23831-4 0  9991
2 49093  87.9048  73.0367 0001388  78.0232 282.1055 13.17649039190120
ONEWEB-0308             
1 49094U 21075V   25195.64256954 -.00001887  00000+0 -52816-2 0  9993
2 49094  87.8853  57.7729 0001815  84.6676 275.4660 13.12449107190288
ONEWEB-0309             
1 49095U 21075W   25195.70462483  .00000046  00000+0  84498-4 0  9994
2 49095  87.9050  73.0379 0001963  66.9272 293.2067 13.17649264189132
ONEWEB-0310             
1 49096U 21075X   25195.65716819 -.00000346  00000+0 -99601-3 0  9990
2 49096  87.8863  57.8141 0001790  78.7327 281.4002 13.12443905190916
